start=new Date('2022-06-07T00:00:00.000Z').valueOf();
sats=[{"BSTAR":"-0.02739900000000","CLASSIFICATION_TYPE":"U","OBJECT_NAME":"STARLINK-3597","GP_ID":"205529199","EPHEMERIS_TYPE":"0","MEAN_ANOMALY":"322.0785","COUNTRY_CODE":"US","REF_FRAME":"TEME","APOAPSIS":"480.274","TLE_LINE1":"1 51898U 22022AY  22157.91667824 -.00725978  00000-0 -27399-1 0  9990","MEAN_MOTION":"15.28834250","INCLINATION":"53.2176","RCS_SIZE":"LARGE","FILE":"3484350","TIME_SYSTEM":"UTC","MEAN_MOTION_DDOT":"0.0000000000000","PERIOD":"94.189","TLE_LINE2":"2 51898  53.2176  38.0574 0001423  51.2584 322.0785 15.28834250  1308","MEAN_ELEMENT_THEORY":"SGP4","SITE":"AFETR","PERIAPSIS":"478.322","MEAN_MOTION_DOT":"-0.00725978","NORAD_CAT_ID":"51898","OBJECT_ID":"2022-022AY","EPOCH":"2022-06-06T22:00:00.999936","LAUNCH_DATE":"2022-03-03","SEMIMAJOR_AXIS":"6857.433","CENTER_NAME":"EARTH","ARG_OF_PERICENTER":"51.2584","DECAY_DATE":null,"REV_AT_EPOCH":"130","ELEMENT_SET_NO":"999","RA_OF_ASC_NODE":"38.0574","ECCENTRICITY":"0.00014230","OBJECT_TYPE":"PAYLOAD"},{"GP_ID":"205529335","EPHEMERIS_TYPE":"0","MEAN_ANOMALY":"320.9716","COUNTRY_CODE":"US","REF_FRAME":"TEME","BSTAR":"-0.03307200000000","CLASSIFICATION_TYPE":"U","OBJECT_NAME":"STARLINK-3700","MEAN_MOTION_DDOT":"0.0000000000000","PERIOD":"95.413","TLE_LINE2":"2 51956  53.2176  67.2436 0001906  37.9298 320.9716 15.09220616  1308","INCLINATION":"53.2176","TLE_LINE1":"1 51956U 22025A   22157.91667824 -.00501618  00000-0 -33072-1 0  9996","MEAN_MOTION":"15.09220616","APOAPSIS":"539.901","TIME_SYSTEM":"UTC","RCS_SIZE":"LARGE","FILE":"3484350","NORAD_CAT_ID":"51956","MEAN_MOTION_DOT":"-0.00501618","PERIAPSIS":"537.264","EPOCH":"2022-06-06T22:00:00.999936","OBJECT_ID":"2022-025A","LAUNCH_DATE":"2022-03-09","CENTER_NAME":"EARTH","SEMIMAJOR_AXIS":"6916.717","MEAN_ELEMENT_THEORY":"SGP4","SITE":"AFETR","ECCENTRICITY":"0.00019060","RA_OF_ASC_NODE":"67.2436","OBJECT_TYPE":"PAYLOAD","ARG_OF_PERICENTER":"37.9298","DECAY_DATE":null,"ELEMENT_SET_NO":"999","REV_AT_EPOCH":"130"},{"GP_ID":"205529505","EPHEMERIS_TYPE":"0","MEAN_ANOMALY":"64.2276","REF_FRAME":"TEME","COUNTRY_CODE":"US","CLASSIFICATION_TYPE":"U","BSTAR":"-0.04688900000000","OBJECT_NAME":"STARLINK-3694","MEAN_MOTION_DDOT":"0.0000000000000","PERIOD":"95.346","TLE_LINE2":"2 51957  53.2175  67.2491 0002064  32.4260  64.2276 15.10292529  1307","INCLINATION":"53.2175","TLE_LINE1":"1 51957U 22025B   22157.91667824 -.00722825  00000-0 -46889-1 0  9992","MEAN_MOTION":"15.10292529","APOAPSIS":"536.736","TIME_SYSTEM":"UTC","RCS_SIZE":"LARGE","FILE":"3484350","NORAD_CAT_ID":"51957","MEAN_MOTION_DOT":"-0.00722825","PERIAPSIS":"533.882","EPOCH":"2022-06-06T22:00:00.999936","OBJECT_ID":"2022-025B","LAUNCH_DATE":"2022-03-09","SEMIMAJOR_AXIS":"6913.444","CENTER_NAME":"EARTH","MEAN_ELEMENT_THEORY":"SGP4","SITE":"AFETR","ECCENTRICITY":"0.00020640","RA_OF_ASC_NODE":"67.2491","OBJECT_TYPE":"PAYLOAD","ARG_OF_PERICENTER":"32.4260","DECAY_DATE":null,"ELEMENT_SET_NO":"999","REV_AT_EPOCH":"130"},{"OBJECT_NAME":"STARLINK-3692","BSTAR":"-0.04663500000000","CLASSIFICATION_TYPE":"U","COUNTRY_CODE":"US","REF_FRAME":"TEME","GP_ID":"205529203","MEAN_ANOMALY":"344.0209","EPHEMERIS_TYPE":"0","INCLINATION":"53.2176","TLE_LINE1":"1 51958U 22025C   22157.91667824 -.00704458  00000-0 -46635-1 0  9994","MEAN_MOTION":"15.09492516","APOAPSIS":"539.082","TIME_SYSTEM":"UTC","FILE":"3484350","RCS_SIZE":"LARGE","TLE_LINE2":"2 51958  53.2176  67.2445 0001924  34.6047 344.0209 15.09492516  1300","MEAN_MOTION_DDOT":"0.0000000000000","PERIOD":"95.396","SITE":"AFETR","MEAN_ELEMENT_THEORY":"SGP4","LAUNCH_DATE":"2022-03-09","CENTER_NAME":"EARTH","SEMIMAJOR_AXIS":"6915.887","NORAD_CAT_ID":"51958","MEAN_MOTION_DOT":"-0.00704458","PERIAPSIS":"536.421","EPOCH":"2022-06-06T22:00:00.999936","OBJECT_ID":"2022-025C","ELEMENT_SET_NO":"999","REV_AT_EPOCH":"130","ARG_OF_PERICENTER":"34.6047","DECAY_DATE":null,"OBJECT_TYPE":"PAYLOAD","ECCENTRICITY":"0.00019240","RA_OF_ASC_NODE":"67.2445"},{"GP_ID":"205529236","EPHEMERIS_TYPE":"0","MEAN_ANOMALY":"42.4678","REF_FRAME":"TEME","COUNTRY_CODE":"US","BSTAR":"-0.04715700000000","CLASSIFICATION_TYPE":"U","OBJECT_NAME":"STARLINK-3704","MEAN_MOTION_DDOT":"0.0000000000000","PERIOD":"95.358","TLE_LINE2":"2 51959  53.2175  67.2479 0001940  34.8167  42.4678 15.10094724  1300","TLE_LINE1":"1 51959U 22025D   22157.91667824 -.00722956  00000-0 -47157-1 0  9998","MEAN_MOTION":"15.10094724","INCLINATION":"53.2175","APOAPSIS":"537.254","TIME_SYSTEM":"UTC","FILE":"3484350","RCS_SIZE":"LARGE","NORAD_CAT_ID":"51959","MEAN_MOTION_DOT":"-0.00722956","PERIAPSIS":"534.572","EPOCH":"2022-06-06T22:00:00.999936","OBJECT_ID":"2022-025D","LAUNCH_DATE":"2022-03-09","CENTER_NAME":"EARTH","SEMIMAJOR_AXIS":"6914.048","MEAN_ELEMENT_THEORY":"SGP4","SITE":"AFETR","ECCENTRICITY":"0.00019400","RA_OF_ASC_NODE":"67.2479","OBJECT_TYPE":"PAYLOAD","ARG_OF_PERICENTER":"34.8167","DECAY_DATE":null,"ELEMENT_SET_NO":"999","REV_AT_EPOCH":"130"},{"FILE":"3484350","RCS_SIZE":"LARGE","TIME_SYSTEM":"UTC","APOAPSIS":"536.013","MEAN_MOTION":"15.10490261","TLE_LINE1":"1 51960U 22025E   22157.91667824 -.00722483  00000-0 -46610-1 0  9998","INCLINATION":"53.2174","TLE_LINE2":"2 51960  53.2174  67.2502 0001891  39.5471  76.3835 15.10490261  1300","PERIOD":"95.333","MEAN_MOTION_DDOT":"0.0000000000000","OBJECT_NAME":"STARLINK-3691","CLASSIFICATION_TYPE":"U","BSTAR":"-0.04661000000000","REF_FRAME":"TEME","COUNTRY_CODE":"US","MEAN_ANOMALY":"76.3835","EPHEMERIS_TYPE":"0","GP_ID":"205529000","REV_AT_EPOCH":"130","ELEMENT_SET_NO":"999","DECAY_DATE":null,"ARG_OF_PERICENTER":"39.5471","OBJECT_TYPE":"PAYLOAD","RA_OF_ASC_NODE":"67.2502","ECCENTRICITY":"0.00018910","SITE":"AFETR","MEAN_ELEMENT_THEORY":"SGP4","CENTER_NAME":"EARTH","SEMIMAJOR_AXIS":"6912.841","LAUNCH_DATE":"2022-03-09","OBJECT_ID":"2022-025E","EPOCH":"2022-06-06T22:00:00.999936","PERIAPSIS":"533.399","MEAN_MOTION_DOT":"-0.00722483","NORAD_CAT_ID":"51960"},{"MEAN_ANOMALY":"2.0833","EPHEMERIS_TYPE":"0","GP_ID":"205529169","COUNTRY_CODE":"US","REF_FRAME":"TEME","BSTAR":"-0.04779300000000","CLASSIFICATION_TYPE":"U","OBJECT_NAME":"STARLINK-3689","PERIOD":"95.383","MEAN_MOTION_DDOT":"0.0000000000000","TLE_LINE2":"2 51961  53.2176  67.2456 0001846  36.1860   2.0833 15.09699654  1305","TIME_SYSTEM":"UTC","FILE":"3484350","RCS_SIZE":"LARGE","TLE_LINE1":"1 51961U 22025F   22157.91667824 -.00724605  00000-0 -47793-1 0  9990","MEAN_MOTION":"15.09699654","INCLINATION":"53.2176","APOAPSIS":"538.396","EPOCH":"2022-06-06T22:00:00.999936","OBJECT_ID":"2022-025F","NORAD_CAT_ID":"51961","MEAN_MOTION_DOT":"-0.00724605","PERIAPSIS":"535.842","CENTER_NAME":"EARTH","SEMIMAJOR_AXIS":"6915.254","LAUNCH_DATE":"2022-03-09","MEAN_ELEMENT_THEORY":"SGP4","SITE":"AFETR","ECCENTRICITY":"0.00018460","RA_OF_ASC_NODE":"67.2456","OBJECT_TYPE":"PAYLOAD","DECAY_DATE":null,"ARG_OF_PERICENTER":"36.1860","ELEMENT_SET_NO":"999","REV_AT_EPOCH":"130"},{"CLASSIFICATION_TYPE":"U","BSTAR":"-0.04611600000000","OBJECT_NAME":"STARLINK-3697","GP_ID":"205528867","EPHEMERIS_TYPE":"0","MEAN_ANOMALY":"117.3249","REF_FRAME":"TEME","COUNTRY_CODE":"US","INCLINATION":"53.2174","TLE_LINE1":"1 51962U 22025G   22157.91667824 -.00721739  00000-0 -46116-1 0  9994","MEAN_MOTION":"15.10831897","APOAPSIS":"535.198","TIME_SYSTEM":"UTC","RCS_SIZE":"LARGE","FILE":"3484350","MEAN_MOTION_DDOT":"0.0000000000000","PERIOD":"95.312","TLE_LINE2":"2 51962  53.2174  67.2519 0002220  31.9389 117.3249 15.10831897  1300","MEAN_ELEMENT_THEORY":"SGP4","SITE":"AFETR","NORAD_CAT_ID":"51962","PERIAPSIS":"532.129","MEAN_MOTION_DOT":"-0.00721739","EPOCH":"2022-06-06T22:00:00.999936","OBJECT_ID":"2022-025G","LAUNCH_DATE":"2022-03-09","SEMIMAJOR_AXIS":"6911.799","CENTER_NAME":"EARTH","ARG_OF_PERICENTER":"31.9389","DECAY_DATE":null,"ELEMENT_SET_NO":"999","REV_AT_EPOCH":"130","ECCENTRICITY":"0.00022200","RA_OF_ASC_NODE":"67.2519","OBJECT_TYPE":"PAYLOAD"},{"CLASSIFICATION_TYPE":"U","BSTAR":"-0.04741500000000","OBJECT_NAME":"STARLINK-3675","GP_ID":"205528900","MEAN_ANOMALY":"23.8802","EPHEMERIS_TYPE":"0","COUNTRY_CODE":"US","REF_FRAME":"TEME","APOAPSIS":"537.865","TLE_LINE1":"1 51963U 22025H   22157.91667824 -.00722941  00000-0 -47415-1 0  9994","INCLINATION":"53.2176","MEAN_MOTION":"15.09896855","FILE":"3484350","RCS_SIZE":"LARGE","TIME_SYSTEM":"UTC","MEAN_MOTION_DDOT":"0.0000000000000","PERIOD":"95.371","TLE_LINE2":"2 51963  53.2176  67.2468 0001949  33.9429  23.8802 15.09896855  1309","MEAN_ELEMENT_THEORY":"SGP4","SITE":"AFETR","MEAN_MOTION_DOT":"-0.00722941","PERIAPSIS":"535.169","NORAD_CAT_ID":"51963","OBJECT_ID":"2022-025H","EPOCH":"2022-06-06T22:00:00.999936","LAUNCH_DATE":"2022-03-09","SEMIMAJOR_AXIS":"6914.652","CENTER_NAME":"EARTH","ARG_OF_PERICENTER":"33.9429","DECAY_DATE":null,"REV_AT_EPOCH":"130","ELEMENT_SET_NO":"999","RA_OF_ASC_NODE":"67.2468","ECCENTRICITY":"0.00019490","OBJECT_TYPE":"PAYLOAD"},{"OBJECT_NAME":"STARLINK-3690","BSTAR":"-0.04549300000000","CLASSIFICATION_TYPE":"U","COUNTRY_CODE":"US","REF_FRAME":"TEME","GP_ID":"205529336","EPHEMERIS_TYPE":"0","MEAN_ANOMALY":"153.2461","MEAN_MOTION":"15.11272139","TLE_LINE1":"1 51964U 22025J   22157.91667824 -.00720816  00000-0 -45493-1 0  9998","INCLINATION":"53.2174","APOAPSIS":"533.714","TIME_SYSTEM":"UTC","FILE":"3484350","RCS_SIZE":"LARGE","TLE_LINE2":"2 51964  53.2174  67.2539 0002015  38.9222 153.2461 15.11272139  1303","MEAN_MOTION_DDOT":"0.0000000000000","PERIOD":"95.284","SITE":"AFETR","MEAN_ELEMENT_THEORY":"SGP4","LAUNCH_DATE":"2022-03-09","CENTER_NAME":"EARTH","SEMIMAJOR_AXIS":"6910.456","NORAD_CAT_ID":"51964","MEAN_MOTION_DOT":"-0.00720816","PERIAPSIS":"530.929","EPOCH":"2022-06-06T22:00:00.999936","OBJECT_ID":"2022-025J","ELEMENT_SET_NO":"999","REV_AT_EPOCH":"130","ARG_OF_PERICENTER":"38.9222","DECAY_DATE":null,"OBJECT_TYPE":"PAYLOAD","ECCENTRICITY":"0.00020150","RA_OF_ASC_NODE":"67.2539"}];
